OBJECT_NAME,OBJECT_ID,EPOCH,MEAN_MOTION,ECCENTRICITY,INCLINATION,RA_OF_ASC_NODE,ARG_OF_PERICENTER,MEAN_ANOMALY,EPHEMERIS_TYPE,CLASSIFICATION_TYPE,NORAD_CAT_ID,ELEMENT_SET_NO,REV_AT_EPOCH,BSTAR,MEAN_MOTION_DOT,MEAN_MOTION_DDOT
STARLINK-32925,2025-037Q,2026-03-10T04:58:03.625824,14.98369769,.00024052,70.0035,352.9847,274.1485,85.9399,0,U,63091,999,5862,.15962301E-2,.19024E-3,0
STARLINK-32924,2025-037R,2026-03-10T05:10:06.200256,14.98338488,.00025952,70.0036,353.0189,265.2845,94.8018,0,U,63092,999,5868,.69581468E-3,.8221E-4,0
STARLINK-32900,2025-037S,2026-03-10T05:28:08.025024,14.98338143,.00026934,70.0036,353.0599,262.0377,98.0477,0,U,63093,999,5854,.77473994E-3,.9165E-4,0
STARLINK-32927,2025-037T,2026-03-10T02:57:56.069568,14.98312183,.00027466,70.0042,353.4980,257.3618,102.7234,0,U,63094,999,5861,-.33994575E-3,-.4145E-4,0
STARLINK-32907,2025-037U,2026-03-10T04:16:03.714528,14.98288729,.00019876,70.0035,353.2810,267.0251,93.0680,0,U,63095,999,5862,-.13335079E-2,-.1595E-3,0
STARLINK-32911,2025-037V,2026-03-10T04:45:59.282784,15.00220714,.00138015,70.0047,353.3562,242.1343,117.8420,0,U,63096,999,5866,.1137274E+0,.1551077E-1,0
STARLINK-32923,2025-037W,2026-03-10T05:04:05.545056,14.98341766,.00023782,70.0049,353.0014,265.2791,94.8097,0,U,63097,999,5868,.23416327E-3,.2703E-4,0
STARLINK-32913,2025-037X,2026-03-10T05:22:07.503744,14.98332549,.00027608,70.0035,353.0375,264.5477,95.5367,0,U,63098,999,5869,.58963216E-3,.695E-4,0
STARLINK-11629 [DTC],2025-039A,2026-03-09T11:17:59.037216,15.70966208,.00025758,43.0001,237.9328,274.3790,85.6783,0,U,63104,999,5958,.21575767E-2,.287726E-2,0
STARLINK-11624 [DTC],2025-039B,2026-03-09T12:20:27.265344,15.70999799,.00015085,42.9985,238.2827,249.6046,110.4660,0,U,63105,999,5958,.17855816E-2,.236901E-2,0
STARLINK-11584 [DTC],2025-039C,2026-03-09T15:22:16.080960,15.70868494,.0001759,42.9991,237.5061,275.5772,84.4895,0,U,63106,999,5960,.86234E-3,.111837E-2,0
STARLINK-11627 [DTC],2025-039D,2026-03-09T11:33:16.317504,15.71013936,.00017688,42.9998,238.0174,238.5723,121.4972,0,U,63107,999,5958,.222215E-2,.297284E-2,0
STARLINK-11632 [DTC],2025-039E,2026-03-09T11:56:12.513120,15.71003521,.00010274,42.9992,238.1445,244.4077,115.6684,0,U,63108,999,5958,.20586739E-2,.274501E-2,0
STARLINK-11625 [DTC],2025-039F,2026-03-08T22:19:48.612000,15.70919339,.00028885,42.9994,241.6366,245.5388,114.5179,0,U,63109,999,5949,.20583505E-2,.273465E-2,0
STARLINK-11601 [DTC],2025-039G,2026-03-09T11:40:54.931296,15.71014558,.00017375,42.9973,238.0576,223.3522,136.7209,0,U,63110,999,5958,.22192863E-2,.296895E-2,0
STARLINK-11630 [DTC],2025-039H,2026-03-10T00:00:02.999808,15.70787595,.00014516,43.0002,235.2651,272.8061,353.1613,0,U,63111,999,599,.15245551E-2,.199499E-2,0
STARLINK-11590 [DTC],2025-039J,2026-03-10T03:42:24.241536,15.71032093,.00017571,42.9996,234.4824,309.4609,50.6103,0,U,63112,999,5968,.2928261E-2,.396988E-2,0
STARLINK-11598 [DTC],2025-039K,2026-03-09T11:48:33.634080,15.70994790,.00018327,42.9990,238.0998,234.4934,125.5763,0,U,63113,999,5958,.19350287E-2,.257353E-2,0
STARLINK-11600 [DTC],2025-039L,2026-03-09T12:57:11.160000,15.70870329,.00049559,43.0006,237.5875,302.9789,57.0602,0,U,63114,999,5959,.15388016E-2,.20222E-2,0
STARLINK-11597 [DTC],2025-039M,2026-03-10T03:57:30.723552,15.70981882,.0001168,42.9996,233.6690,309.1063,50.9701,0,U,63115,999,5969,.21805463E-2,.2911E-2,0
STARLINK-11591 [DTC],2025-039N,2026-03-09T14:05:48.852672,15.70859960,.0002007,42.9995,237.0761,273.4651,86.5987,0,U,63116,999,5960,.80819E-3,.104659E-2,0
STARLINK-32955,2025-039P,2026-03-10T06:00:02.000160,15.35718257,.00092242,43.0014,8.2502,204.9972,324.7450,0,U,63117,999,580,.60146418E-2,.21979E-2,0
STARLINK-32945,2025-039Q,2026-03-10T04:18:58.850784,15.27597048,.00042835,42.9996,9.8504,234.3710,125.6744,0,U,63118,999,5814,.12748469E-2,.35011E-3,0
STARLINK-32941,2025-039R,2026-03-10T04:24:34.368768,15.27599657,.00011261,43.0044,358.6183,260.4134,99.6591,0,U,63119,999,5827,.11671691E-2,.32014E-3,0
STARLINK-32942,2025-039S,2026-03-10T04:28:14.701728,15.27616295,.00014544,42.9998,9.8966,260.3458,99.7229,0,U,63120,999,5814,.18838637E-2,.52002E-3,0
STARLINK-32947,2025-039T,2026-03-10T05:16:08.719104,15.27599147,.00015329,43.0050,9.2851,260.2706,99.7972,0,U,63121,999,5815,.12069446E-2,.33119E-3,0
STARLINK-32961,2025-039U,2026-03-10T04:44:53.736288,15.27609933,.00019166,43.0020,9.9892,252.6725,107.3917,0,U,63122,999,5814,.18542743E-2,.51166E-3,0
STARLINK-32948,2025-039V,2026-03-10T04:33:47.868768,15.27608406,.00010579,43.0051,9.9219,328.9904,31.0885,0,U,63123,999,5814,.15484534E-2,.42631E-3,0
STARLINK-32957,2025-039W,2026-03-10T04:54:09.753984,15.27604737,.00003101,42.9979,10.0377,50.3120,309.7759,0,U,63124,999,5814,.16000548E-2,.44065E-3,0
SUPERVIEW NEO-1 03,2025-040A,2026-03-09T18:28:12.817056,15.21682826,.00014726,97.3380,185.5773,140.3569,219.7775,0,U,63125,999,5706,.4236936E-5,.29E-6,0
