STARLINK-32925          
1 63091U 25037Q   26069.20698641  .00019024  00000+0  15962-2 0  9995
2 63091  70.0035 352.9847 0002405 274.1485  85.9399 14.98369769 58622
STARLINK-32924          
1 63092U 25037R   26069.21534954  .00008221  00000+0  69581-3 0  9997
2 63092  70.0036 353.0189 0002595 265.2845  94.8018 14.98338488 58683
STARLINK-32900          
1 63093U 25037S   26069.22787066  .00009165  00000+0  77474-3 0  9991
2 63093  70.0036 353.0599 0002693 262.0377  98.0477 14.98338143 58541
STARLINK-32927          
1 63094U 25037T   26069.12356562 -.00004145  00000+0 -33995-3 0  9999
2 63094  70.0042 353.4980 0002746 257.3618 102.7234 14.98312183 58619
STARLINK-32907          
1 63095U 25037U   26069.17782077 -.00015950  00000+0 -13335-2 0  9990
2 63095  70.0035 353.2810 0001987 267.0251  93.0680 14.98288729 58625
STARLINK-32911          
1 63096U 25037V   26069.19860281  .01551077  00000+0  11373+0 0  9998
2 63096  70.0047 353.3562 0013801 242.1343 117.8420 15.00220714 58663
STARLINK-32923          
1 63097U 25037W   26069.21117529  .00002703  00000+0  23416-3 0  9993
2 63097  70.0049 353.0014 0002378 265.2791  94.8097 14.98341766 58688
STARLINK-32913          
1 63098U 25037X   26069.22369796  .00006950  00000+0  58963-3 0  9993
2 63098  70.0035 353.0375 0002760 264.5477  95.5367 14.98332549 58690
STARLINK-11629 [DTC]    
1 63104U 25039A   26068.47082219  .00287726  00000+0  21576-2 0  9992
2 63104  43.0001 237.9328 0002575 274.3790  85.6783 15.70966208 59587
STARLINK-11624 [DTC]    
1 63105U 25039B   26068.51420446  .00236901  00000+0  17856-2 0  9991
2 63105  42.9985 238.2827 0001508 249.6046 110.4660 15.70999799 59581
STARLINK-11584 [DTC]    
1 63106U 25039C   26068.64046390  .00111837  00000+0  86234-3 0  9995
2 63106  42.9991 237.5061 0001759 275.5772  84.4895 15.70868494 59603
STARLINK-11627 [DTC]    
1 63107U 25039D   26068.48143886  .00297284  00000+0  22221-2 0  9992
2 63107  42.9998 238.0174 0001768 238.5723 121.4972 15.71013936 59586
STARLINK-11632 [DTC]    
1 63108U 25039E   26068.49736705  .00274501  00000+0  20587-2 0  9992
2 63108  42.9992 238.1445 0001027 244.4077 115.6684 15.71003521 59583
STARLINK-11625 [DTC]    
1 63109U 25039F   26067.93042375  .00273465  00000+0  20584-2 0  9999
2 63109  42.9994 241.6366 0002888 245.5388 114.5179 15.70919339 59499
STARLINK-11601 [DTC]    
1 63110U 25039G   26068.48674689  .00296895  00000+0  22193-2 0  9991
2 63110  42.9973 238.0576 0001737 223.3522 136.7209 15.71014558 59587
STARLINK-11630 [DTC]    
1 63111U 25039H   26069.00003472  .00199499  00000+0  15246-2 0  9990
2 63111  43.0002 235.2651 0001451 272.8061 353.1613 15.70787595  5993
STARLINK-11590 [DTC]    
1 63112U 25039J   26069.15444724  .00396988  00000+0  29283-2 0  9994
2 63112  42.9996 234.4824 0001757 309.4609  50.6103 15.71032093 59686
STARLINK-11598 [DTC]    
1 63113U 25039K   26068.49205595  .00257353  00000+0  19350-2 0  9998
2 63113  42.9990 238.0998 0001832 234.4934 125.5763 15.70994790 59588
STARLINK-11600 [DTC]    
1 63114U 25039L   26068.53971250  .00202220  00000+0  15388-2 0  9992
2 63114  43.0006 237.5875 0004955 302.9789  57.0602 15.70870329 59598
STARLINK-11597 [DTC]    
1 63115U 25039M   26069.16493893  .00291100  00000+0  21805-2 0  9991
2 63115  42.9996 233.6690 0001168 309.1063  50.9701 15.70981882 59694
STARLINK-11591 [DTC]    
1 63116U 25039N   26068.58737098  .00104659  00000+0  80819-3 0  9998
2 63116  42.9995 237.0761 0002007 273.4651  86.5987 15.70859960 59603
STARLINK-32955          
1 63117U 25039P   26069.25002315  .00219790  00000+0  60146-2 0  9994
2 63117  43.0014   8.2502 0009224 204.9972 324.7450 15.35718257  5801
STARLINK-32945          
1 63118U 25039Q   26069.17984781  .00035011  00000+0  12748-2 0  9999
2 63118  42.9996   9.8504 0004283 234.3710 125.6744 15.27597048 58148
STARLINK-32941          
1 63119U 25039R   26069.18373112  .00032014  00000+0  11672-2 0  9996
2 63119  43.0044 358.6183 0001126 260.4134  99.6591 15.27599657 58278
STARLINK-32942          
1 63120U 25039S   26069.18628127  .00052002  00000+0  18839-2 0  9998
2 63120  42.9998   9.8966 0001454 260.3458  99.7229 15.27616295 58145
STARLINK-32947          
1 63121U 25039T   26069.21954536  .00033119  00000+0  12069-2 0  9996
2 63121  43.0050   9.2851 0001532 260.2706  99.7972 15.27599147 58158
STARLINK-32961          
1 63122U 25039U   26069.19784417  .00051166  00000+0  18543-2 0  9998
2 63122  43.0020   9.9892 0001916 252.6725 107.3917 15.27609933 58149
STARLINK-32948          
1 63123U 25039V   26069.19013737  .00042631  00000+0  15485-2 0  9998
2 63123  43.0051   9.9219 0001057 328.9904  31.0885 15.27608406 58140
STARLINK-32957          
1 63124U 25039W   26069.20427956  .00044065  00000+0  16001-2 0  9991
2 63124  42.9979  10.0377 0000310  50.3120 309.7759 15.27604737 58141
SUPERVIEW NEO-1 03      
1 63125U 25040A   26068.76959279  .00000029  00000+0  42369-5 0  9993
2 63125  97.3380 185.5773 0001472 140.3569 219.7775 15.21682826 57064
